start=new Date('2022-03-25T00:00:00.000Z').valueOf();
sats=[{"EPOCH":"2022-03-24T22:26:52.720224","TLE_LINE2":"2 47648  53.0567  61.8710 0001816  50.7001 309.4148 15.06418424 62360","TLE_LINE1":"1 47648U 21012AE  22083.93533241 -.00002685  00000-0 -16132-3 0  9999","ELEMENT_SET_NO":"999","FILE":"3373054","GP_ID":"199619875","REV_AT_EPOCH":"6236","MEAN_MOTION_DDOT":"0.0000000000000","DECAY_DATE":null,"TIME_SYSTEM":"UTC","BSTAR":"-0.00016132000000","OBJECT_ID":"2021-012AE","MEAN_ELEMENT_THEORY":"SGP4","REF_FRAME":"TEME","SITE":"AFETR","APOAPSIS":"548.415","MEAN_ANOMALY":"309.4148","NORAD_CAT_ID":"47648","LAUNCH_DATE":"2021-02-16","COUNTRY_CODE":"US","EPHEMERIS_TYPE":"0","ARG_OF_PERICENTER":"50.7001","INCLINATION":"53.0567","MEAN_MOTION":"15.06418424","OBJECT_TYPE":"PAYLOAD","PERIAPSIS":"545.899","ECCENTRICITY":"0.00018160","RA_OF_ASC_NODE":"61.8710","PERIOD":"95.591","CLASSIFICATION_TYPE":"U","CENTER_NAME":"EARTH","SEMIMAJOR_AXIS":"6925.292","OBJECT_NAME":"STARLINK-2031","MEAN_MOTION_DOT":"-0.00002685","RCS_SIZE":"MEDIUM"},{"MEAN_ANOMALY":"312.2228","NORAD_CAT_ID":"47649","SITE":"AFETR","APOAPSIS":"548.519","OBJECT_ID":"2021-012AF","MEAN_ELEMENT_THEORY":"SGP4","BSTAR":"0.00014183000000","REF_FRAME":"TEME","TIME_SYSTEM":"UTC","DECAY_DATE":null,"REV_AT_EPOCH":"6236","MEAN_MOTION_DDOT":"0.0000000000000","FILE":"3373054","GP_ID":"199621126","ELEMENT_SET_NO":"999","EPOCH":"2022-03-24T22:32:11.779872","TLE_LINE1":"1 47649U 21012AF  22083.93902523  .00001832  00000-0  14183-3 0  9998","TLE_LINE2":"2 47649  53.0547  61.8487 0001899  47.8922 312.2228 15.06403110 62367","RCS_SIZE":"LARGE","MEAN_MOTION_DOT":"0.00001832","OBJECT_NAME":"STARLINK-2032","CENTER_NAME":"EARTH","SEMIMAJOR_AXIS":"6925.339","CLASSIFICATION_TYPE":"U","ECCENTRICITY":"0.00018990","OBJECT_TYPE":"PAYLOAD","PERIAPSIS":"545.889","PERIOD":"95.592","RA_OF_ASC_NODE":"61.8487","ARG_OF_PERICENTER":"47.8922","MEAN_MOTION":"15.06403110","INCLINATION":"53.0547","LAUNCH_DATE":"2021-02-16","COUNTRY_CODE":"US","EPHEMERIS_TYPE":"0"},{"ELEMENT_SET_NO":"999","TLE_LINE1":"1 47650U 21012AG  22083.92428336  .00008751  00000-0  60558-3 0  9998","TLE_LINE2":"2 47650  53.0549  61.9156 0001906  57.6201 302.4972 15.06403555 62341","EPOCH":"2022-03-24T22:10:58.082304","MEAN_MOTION_DDOT":"0.0000000000000","REV_AT_EPOCH":"6234","GP_ID":"199620877","FILE":"3373054","REF_FRAME":"TEME","OBJECT_ID":"2021-012AG","MEAN_ELEMENT_THEORY":"SGP4","BSTAR":"0.00060558000000","TIME_SYSTEM":"UTC","DECAY_DATE":null,"NORAD_CAT_ID":"47650","MEAN_ANOMALY":"302.4972","SITE":"AFETR","APOAPSIS":"548.523","MEAN_MOTION":"15.06403555","INCLINATION":"53.0549","ARG_OF_PERICENTER":"57.6201","COUNTRY_CODE":"US","EPHEMERIS_TYPE":"0","LAUNCH_DATE":"2021-02-16","CLASSIFICATION_TYPE":"U","RA_OF_ASC_NODE":"61.9156","PERIOD":"95.592","PERIAPSIS":"545.883","OBJECT_TYPE":"PAYLOAD","ECCENTRICITY":"0.00019060","SEMIMAJOR_AXIS":"6925.338","CENTER_NAME":"EARTH","MEAN_MOTION_DOT":"0.00008751","RCS_SIZE":"LARGE","OBJECT_NAME":"STARLINK-2033"},{"SEMIMAJOR_AXIS":"6925.329","CENTER_NAME":"EARTH","MEAN_MOTION_DOT":"0.00001523","RCS_SIZE":"LARGE","OBJECT_NAME":"STARLINK-2035","INCLINATION":"53.0551","MEAN_MOTION":"15.06406379","ARG_OF_PERICENTER":"57.7199","COUNTRY_CODE":"US","EPHEMERIS_TYPE":"0","LAUNCH_DATE":"2021-02-16","CLASSIFICATION_TYPE":"U","PERIOD":"95.592","RA_OF_ASC_NODE":"83.8511","PERIAPSIS":"546.071","OBJECT_TYPE":"PAYLOAD","ECCENTRICITY":"0.00016220","REF_FRAME":"TEME","BSTAR":"0.00012109000000","MEAN_ELEMENT_THEORY":"SGP4","OBJECT_ID":"2021-012AH","DECAY_DATE":null,"TIME_SYSTEM":"UTC","NORAD_CAT_ID":"47651","MEAN_ANOMALY":"302.3947","APOAPSIS":"548.317","SITE":"AFETR","ELEMENT_SET_NO":"999","TLE_LINE2":"2 47651  53.0551  83.8511 0001622  57.7199 302.3947 15.06406379 61498","TLE_LINE1":"1 47651U 21012AH  22083.49392232  .00001523  00000-0  12109-3 0  9995","EPOCH":"2022-03-24T11:51:14.888448","MEAN_MOTION_DDOT":"0.0000000000000","REV_AT_EPOCH":"6149","GP_ID":"199580936","FILE":"3372327"},{"MEAN_MOTION":"15.06378527","INCLINATION":"53.0553","ARG_OF_PERICENTER":"47.1550","COUNTRY_CODE":"US","EPHEMERIS_TYPE":"0","LAUNCH_DATE":"2021-02-16","CLASSIFICATION_TYPE":"U","RA_OF_ASC_NODE":"81.6492","PERIOD":"95.594","PERIAPSIS":"545.823","OBJECT_TYPE":"PAYLOAD","ECCENTRICITY":"0.00021030","SEMIMAJOR_AXIS":"6925.414","CENTER_NAME":"EARTH","RCS_SIZE":"LARGE","MEAN_MOTION_DOT":"0.00005866","OBJECT_NAME":"STARLINK-2036","ELEMENT_SET_NO":"999","TLE_LINE1":"1 47652U 21012AJ  22083.98511262  .00005866  00000-0  41259-3 0  9998","TLE_LINE2":"2 47652  53.0553  81.6492 0002103  47.1550 312.9615 15.06378527 61564","EPOCH":"2022-03-24T23:38:33.730368","MEAN_MOTION_DDOT":"0.0000000000000","REV_AT_EPOCH":"6156","GP_ID":"199597614","FILE":"3373000","REF_FRAME":"TEME","MEAN_ELEMENT_THEORY":"SGP4","OBJECT_ID":"2021-012AJ","BSTAR":"0.00041259000000","TIME_SYSTEM":"UTC","DECAY_DATE":null,"NORAD_CAT_ID":"47652","MEAN_ANOMALY":"312.9615","SITE":"AFETR","APOAPSIS":"548.736"},{"TIME_SYSTEM":"UTC","DECAY_DATE":null,"OBJECT_ID":"2021-012AK","MEAN_ELEMENT_THEORY":"SGP4","BSTAR":"0.00006995900000","REF_FRAME":"TEME","APOAPSIS":"548.614","SITE":"AFETR","MEAN_ANOMALY":"315.9274","NORAD_CAT_ID":"47653","EPOCH":"2022-03-24T15:32:52.967328","TLE_LINE1":"1 47653U 21012AK  22083.64783527  .00000760  00000-0  69959-4 0  9993","TLE_LINE2":"2 47653  53.0552  63.1420 0002026  44.1877 315.9274 15.06400714 62304","ELEMENT_SET_NO":"999","FILE":"3373054","GP_ID":"199620627","REV_AT_EPOCH":"6230","MEAN_MOTION_DDOT":"0.0000000000000","CENTER_NAME":"EARTH","SEMIMAJOR_AXIS":"6925.346","OBJECT_NAME":"STARLINK-2037","MEAN_MOTION_DOT":"0.00000760","RCS_SIZE":"LARGE","LAUNCH_DATE":"2021-02-16","EPHEMERIS_TYPE":"0","COUNTRY_CODE":"US","ARG_OF_PERICENTER":"44.1877","MEAN_MOTION":"15.06400714","INCLINATION":"53.0552","PERIAPSIS":"545.808","OBJECT_TYPE":"PAYLOAD","ECCENTRICITY":"0.00020260","PERIOD":"95.592","RA_OF_ASC_NODE":"63.1420","CLASSIFICATION_TYPE":"U"},{"RA_OF_ASC_NODE":"82.8077","PERIOD":"95.592","OBJECT_TYPE":"PAYLOAD","ECCENTRICITY":"0.00020770","PERIAPSIS":"545.775","CLASSIFICATION_TYPE":"U","EPHEMERIS_TYPE":"0","COUNTRY_CODE":"US","LAUNCH_DATE":"2021-02-16","INCLINATION":"53.0552","MEAN_MOTION":"15.06400102","ARG_OF_PERICENTER":"53.5175","OBJECT_NAME":"STARLINK-2038","MEAN_MOTION_DOT":"0.00001983","RCS_SIZE":"LARGE","SEMIMAJOR_AXIS":"6925.348","CENTER_NAME":"EARTH","GP_ID":"199621377","FILE":"3373054","MEAN_MOTION_DDOT":"0.0000000000000","REV_AT_EPOCH":"6204","TLE_LINE2":"2 47654  53.0552  82.8077 0002077  53.5175 306.6005 15.06400102 62043","TLE_LINE1":"1 47654U 21012AL  22083.72339825  .00001983  00000-0  15201-3 0  9999","EPOCH":"2022-03-24T17:21:41.608800","ELEMENT_SET_NO":"999","APOAPSIS":"548.652","SITE":"AFETR","NORAD_CAT_ID":"47654","MEAN_ANOMALY":"306.6005","DECAY_DATE":null,"TIME_SYSTEM":"UTC","REF_FRAME":"TEME","BSTAR":"0.00015201000000","MEAN_ELEMENT_THEORY":"SGP4","OBJECT_ID":"2021-012AL"},{"APOAPSIS":"548.348","SITE":"AFETR","NORAD_CAT_ID":"47655","MEAN_ANOMALY":"304.4978","DECAY_DATE":null,"TIME_SYSTEM":"UTC","REF_FRAME":"TEME","BSTAR":"0.00008768300000","OBJECT_ID":"2021-012AM","MEAN_ELEMENT_THEORY":"SGP4","GP_ID":"199580999","FILE":"3372331","MEAN_MOTION_DDOT":"0.0000000000000","REV_AT_EPOCH":"6152","TLE_LINE2":"2 47655  53.0552  82.8471 0001651  55.6167 304.4978 15.06402768 61520","TLE_LINE1":"1 47655U 21012AM  22083.71602630  .00001025  00000-0  87683-4 0  9997","EPOCH":"2022-03-24T17:11:04.672320","ELEMENT_SET_NO":"999","OBJECT_NAME":"STARLINK-2039","RCS_SIZE":"LARGE","MEAN_MOTION_DOT":"0.00001025","SEMIMAJOR_AXIS":"6925.340","CENTER_NAME":"EARTH","PERIOD":"95.592","RA_OF_ASC_NODE":"82.8471","ECCENTRICITY":"0.00016510","OBJECT_TYPE":"PAYLOAD","PERIAPSIS":"546.062","CLASSIFICATION_TYPE":"U","COUNTRY_CODE":"US","EPHEMERIS_TYPE":"0","LAUNCH_DATE":"2021-02-16","INCLINATION":"53.0552","MEAN_MOTION":"15.06402768","ARG_OF_PERICENTER":"55.6167"},{"REV_AT_EPOCH":"6228","MEAN_MOTION_DDOT":"0.0000000000000","FILE":"3372185","GP_ID":"199574598","ELEMENT_SET_NO":"999","EPOCH":"2022-03-24T11:12:47.958336","TLE_LINE1":"1 47656U 21012AN  22083.46722174  .00003035  00000-0  22251-3 0  9998","TLE_LINE2":"2 47656  53.0556  63.9622 0002074  51.1396 308.9777 15.06410338 62280","MEAN_ANOMALY":"308.9777","NORAD_CAT_ID":"47656","APOAPSIS":"548.618","SITE":"AFETR","OBJECT_ID":"2021-012AN","MEAN_ELEMENT_THEORY":"SGP4","BSTAR":"0.00022251000000","REF_FRAME":"TEME","TIME_SYSTEM":"UTC","DECAY_DATE":null,"CLASSIFICATION_TYPE":"U","OBJECT_TYPE":"PAYLOAD","ECCENTRICITY":"0.00020740","PERIAPSIS":"545.746","PERIOD":"95.591","RA_OF_ASC_NODE":"63.9622","ARG_OF_PERICENTER":"51.1396","MEAN_MOTION":"15.06410338","INCLINATION":"53.0556","LAUNCH_DATE":"2021-02-16","COUNTRY_CODE":"US","EPHEMERIS_TYPE":"0","MEAN_MOTION_DOT":"0.00003035","RCS_SIZE":"LARGE","OBJECT_NAME":"STARLINK-2040","CENTER_NAME":"EARTH","SEMIMAJOR_AXIS":"6925.317"},{"RCS_SIZE":"LARGE","MEAN_MOTION_DOT":"0.00000191","OBJECT_NAME":"STARLINK-2041","SEMIMAJOR_AXIS":"6925.378","CENTER_NAME":"EARTH","CLASSIFICATION_TYPE":"U","PERIOD":"95.593","RA_OF_ASC_NODE":"81.5620","OBJECT_TYPE":"PAYLOAD","PERIAPSIS":"546.159","ECCENTRICITY":"0.00015650","MEAN_MOTION":"15.06390467","INCLINATION":"53.0546","ARG_OF_PERICENTER":"67.9350","COUNTRY_CODE":"US","EPHEMERIS_TYPE":"0","LAUNCH_DATE":"2021-02-16","NORAD_CAT_ID":"47657","MEAN_ANOMALY":"292.1805","APOAPSIS":"548.327","SITE":"AFETR","REF_FRAME":"TEME","OBJECT_ID":"2021-012AP","MEAN_ELEMENT_THEORY":"SGP4","BSTAR":"0.00003175500000","TIME_SYSTEM":"UTC","DECAY_DATE":null,"MEAN_MOTION_DDOT":"0.0000000000000","REV_AT_EPOCH":"6157","GP_ID":"199598274","FILE":"3373014","ELEMENT_SET_NO":"999","TLE_LINE1":"1 47657U 21012AP  22084.00353525  .00000191  00000-0  31755-4 0  9990","TLE_LINE2":"2 47657  53.0546  81.5620 0001565  67.9350 292.1805 15.06390467 61570","EPOCH":"2022-03-25T00:05:05.445600"}];
